{
    "links": {
        "self": "http://www.neowsapp.com/rest/v1/neo/3536589?api_key=iIulBulltgU6a56xZRHN4H3l9WmuAYTsLGpBGhQ2"
    },
    "id": "3536589",
    "neo_reference_id": "3536589",
    "name": "(2010 MA113)",
    "designation": "2010 MA113",
    "nasa_jpl_url": "http://ssd.jpl.nasa.gov/sbdb.cgi?sstr=3536589",
    "absolute_magnitude_h": 19.687,
    "estimated_diameter": {
        "kilometers": {
            "estimated_diameter_min": 0.3070117355,
            "estimated_diameter_max": 0.6864991104
        },
        "meters": {
            "estimated_diameter_min": 307.0117354569,
            "estimated_diameter_max": 686.4991103718
        },
        "miles": {
            "estimated_diameter_min": 0.1907681891,
            "estimated_diameter_max": 0.4265706387
        },
        "feet": {
            "estimated_diameter_min": 1007.2563821564,
            "estimated_diameter_max": 2252.2937412723
        }
    },
    "is_potentially_hazardous_asteroid": false,
    "close_approach_data": [
        {
            "close_approach_date": "2010-07-21",
            "close_approach_date_full": "2010-Jul-21 07:21",
            "epoch_date_close_approach": 1279696860000,
            "relative_velocity": {
                "kilometers_per_second": "28.0244912371",
                "kilometers_per_hour": "100888.1684535978",
                "miles_per_hour": "62687.9844482925"
            },
            "miss_distance": {
                "astronomical": "0.179650153",
                "lunar": "69.883909517",
                "kilometers": "26875280.23397411",
                "miles": "16699524.770138318"
            },
            "orbiting_body": "Earth"
        }
    ],
    "orbital_data": {
        "orbit_id": "10",
        "orbit_determination_date": "2020-11-11 14:01:23",
        "first_observation_date": "2010-06-24",
        "last_observation_date": "2010-06-26",
        "data_arc_in_days": 2,
        "observations_used": 22,
        "orbit_uncertainty": "9",
        "minimum_orbit_intersection": ".08372",
        "jupiter_tisserand_invariant": "2.799",
        "epoch_osculation": "2455373.5",
        "eccentricity": ".6587171979042131",
        "semi_major_axis": "2.609674996728107",
        "inclination": "40.91606498943401",
        "ascending_node_longitude": "309.8217928221806",
        "orbital_period": "1539.848746341307",
        "perihelion_distance": ".8906371954426819",
        "perihelion_argument": "26.01794775770007",
        "aphelion_distance": "4.328712798013533",
        "perihelion_time": "2455418.657713656390",
        "mean_anomaly": "349.4426144418881",
        "mean_motion": ".2337891957605336",
        "equinox": "J2000",
        "orbit_class": {
            "orbit_class_type": "APO",
            "orbit_class_description": "Near-Earth asteroid orbits which cross the Earth’s orbit similar to that of 1862 Apollo",
            "orbit_class_range": "a (semi-major axis) > 1.0 AU; q (perihelion) < 1.017 AU"
        }
    },
    "is_sentry_object": false
}